<gpx xmlns:ns3="http://www.garmin.com/xmlschemas/TrackPointExtension/v1" xmlns="http://www.topografix.com/GPX/1/1" xmlns:xsi="http://www.w3.org/2001/XMLSchema-instance" xmlns:ns2="http://www.garmin.com/xmlschemas/GpxExtensions/v3" creator="Garmin Connect" version="1.1" xsi:schemaLocation="http://www.topografix.com/GPX/1/1 http://www.topografix.com/GPX/11.xsd">
  <extensions>
<distance>2608.24</distance>
<average_hr>140.0</average_hr>
<average_speed>3.01200008392334</average_speed>
<start_time>2026-05-09T09:05:26+00:00</start_time>
<end_time>2026-05-09T09:19:51.866000+00:00</end_time>
<moving_time>827.543</moving_time>
<elapsed_time>868.412</elapsed_time>
</extensions>
<metadata>
    <link href="connect.garmin.com">
      <text>Garmin Connect</text>
    </link>
    <time>2026-05-09T09:05:26.000Z</time>
  </metadata>
  <trk>
    <name>基础训练</name>
    <type>running</type>
    <trkseg/>
  </trk>
</gpx>
